*******************************************************************************
 Revised: Dec 14, 2021            STEREO-A Spacecraft                      -234
                              http://stereo.gsfc.nasa.gov/

 BACKGROUND:
  STEREO (Solar TErrestrial RElations Observatory) is the third mission in 
  NASA's Solar Terrestrial Probes program (STP). This two-year mission will use
  two nearly identical space-based observatories - one ahead of Earth in its 
  orbit, the other trailing behind - to provide stereoscopic measurements to 
  study the Sun and the nature of coronal mass ejections (CMEs).

 OBJECTIVES:
  * Understand the causes and mechanisms of coronal mass ejection (CME) 
     initiation.
  * Characterize the propagation of CMEs through the heliosphere.
  * Discover the mechanisms and sites of energetic particle acceleration in 
     the low corona and the interplanetary medium.
  * Improve the determination of the structure of the ambient solar wind. 

 SPACECRAFT:
  Launch (Delta II 7925-10L) = October 26, 2006 @ 1:53 UTC
  Mission end                = 2 year nominal mission after launch
  Dimensions                 = 1.14m x 1.22m (launch), 6.47m x 2.03m (deployed)
  Launch Mass                = 620 kg  (includes propellant)
  Power consumption          = 475 watts
  Data downlink              = 720 kilobits/sec
  Memory                     = 1 GB
  Attitude                   = control within 7", knowledge within 0.1"

 INSTRUMENTS (4 packages on each spacecraft):
  * Sun Earth Connection Coronal and Heliospheric Investigation (SECCHI)
  * STEREO/WAVES (SWAVES) radio burst tracker
  * In-situ Measurements of Particles and CME Transients (IMPACT)
  * PLAsma and SupraThermal Ion Composition (PLASTIC) 

 ORBIT:
  STEREO-A and STEREO-B will be launched together, then separate. The Moon's 
  gravity will be used to redirect the observatories to their appropriate 
  orbits, something the launch vehicle alone is not able to do.

  For the first three months after launch, the two observatories will fly in 
  highly elliptical orbits extending from very close to Earth to just beyond 
  the Moon's orbit. STEREO Mission Operations personnel at APL will 
  synchronize spacecraft orbits so that about two months after launch they 
  encounter the Moon, at which time one of them is close enough to use the 
  Moon's gravity to redirect it to a position "ahead"/leading the Earth. 
  Approximately one month later, the second observatory will encounter the 
  Moon again and be redirected to its orbit "behind"/trailing the Earth. 

 POST-LAUNCH SPACECRAFT TRAJECTORY: 
  Fit to tracking data until 2021-Nov-26, planning prediction thereafter.

  Trajectory name                    Start        Stop
  ---------------------------------  -----------  -----------
  ahead_2006_350_01.depm             2006-Oct-26  2006-Dec-15
  ahead_2008_037_01.depm             2006-Dec-15  2008-Jan-21
  ahead_2010_208_01.depm             2008-Jan-21  2010-Jul-16
  ahead_2012_138_01.depm             2010-Jul-16  2012-Apr-18
  ahead_2013_130_01.depm             2012-Apr-18  2013-Apr-25
  ahead_2015_219_01.depm             2013-Apr-25  2015-Jul-23
  ahead_2018_019_01.depm             2015-Jul-23  2017-Dec-21
  ahead_2020_224_01.depm             2017-Dec-21  2020-Aug-11
  ahead_2021_327_07.depm             2020-Aug-11  2021-Nov-23
  ahead_2021_327_07.epm              2021-Nov-23  2022-Mar-17
*******************************************************************************


*******************************************************************************
Ephemeris / WWW_USER Wed Feb  2 11:13:22 2022 Pasadena, USA      / Horizons    
*******************************************************************************
Target body name: STEREO-A (spacecraft) (-234)    {source: STEREO-A_merged}
Center body name: Sun (10)                        {source: DE441}
Center-site name: BODYCENTRIC
*******************************************************************************
Start time      : A.D. 2012-Jan-01 00:09:00.0000 UT      
Stop  time      : A.D. 2012-Dec-31 23:59:00.0000 UT      
Step-size       : 40 minutes
*******************************************************************************
Target pole/equ : No model available
Target radii    : (unavailable)                                                
Center geodetic : 0.00000000,0.00000000,0.0000000 {E-lon(deg),Lat(deg),Alt(km)}
Center cylindric: 0.00000000,0.00000000,0.0000000 {E-lon(deg),Dxy(km),Dz(km)}
Center pole/equ : IAU_SUN                         {East-longitude positive}
Center radii    : 696000.0 x 696000.0 x 696000.0 k{Equator, meridian, pole}    
Target primary  : Earth
Vis. interferer : None
Rel. light bend : Sun                             {source: DE441}
Rel. lght bnd GM: 1.3271E+11 km^3/s^2                                          
Atmos refraction: NO (AIRLESS)
RA format       : HMS
Time format     : CAL 
EOP file        : eop.220131.p220426                                           
EOP coverage    : DATA-BASED 1962-JAN-20 TO 2022-JAN-31. PREDICTS-> 2022-APR-25
Units conversion: 1 au= 149597870.700 km, c= 299792.458 km/s, 1 day= 86400.0 s 
Table cut-offs 1: Elevation (-90.0deg=NO ),Airmass     n.a.    , Daylight (NO )
Table cut-offs 2: Solar elongation (  0.0,180.0=NO ),Local Hour Angle( 0.0=NO )
Table cut-offs 3: RA/DEC angular rate (     0.0=NO )                           
*******************************************************************************
 Date__(UT)__HR:MN     R.A._____(ICRF)_____DEC             delta      deldot
****************************************************************************
$$SOE
 2012-Jan-17 00:09     14 44 37.19 -15 54 09.1  0.96123875586573  -0.1725726
 2012-Jan-17 00:49     14 44 44.11 -15 54 40.2  0.96123598735180  -0.1725637
 2012-Jan-17 01:29     14 44 51.04 -15 55 11.3  0.96123321898207  -0.1725547
 2012-Jan-17 02:09     14 44 57.96 -15 55 42.4  0.96123045075712  -0.1725456
 2012-Jan-17 02:49     14 45 04.89 -15 56 13.5  0.96122768267769  -0.1725365
 2012-Jan-17 03:29     14 45 11.82 -15 56 44.5  0.96122491474453  -0.1725274
 2012-Jan-17 04:09     14 45 18.74 -15 57 15.6  0.96122214695833  -0.1725182
 2012-Jan-17 04:49     14 45 25.67 -15 57 46.6  0.96121937931981  -0.1725090
 2012-Jan-17 05:29     14 45 32.60 -15 58 17.6  0.96121661182969  -0.1724997
 2012-Jan-17 06:09     14 45 39.53 -15 58 48.6  0.96121384448867  -0.1724904
 2012-Jan-17 06:49     14 45 46.46 -15 59 19.6  0.96121107729749  -0.1724810
 2012-Jan-17 07:29     14 45 53.39 -15 59 50.6  0.96120831025680  -0.1724716
 2012-Jan-17 08:09     14 46 00.32 -16 00 21.5  0.96120554336739  -0.1724622
 2012-Jan-17 08:49     14 46 07.25 -16 00 52.5  0.96120277662991  -0.1724527
 2012-Jan-17 09:29     14 46 14.18 -16 01 23.4  0.96120001004513  -0.1724431
 2012-Jan-17 10:09     14 46 21.11 -16 01 54.3  0.96119724361372  -0.1724335
 2012-Jan-17 10:49     14 46 28.05 -16 02 25.2  0.96119447733637  -0.1724239
 2012-Jan-17 11:29     14 46 34.98 -16 02 56.1  0.96119171121385  -0.1724142
 2012-Jan-17 12:09     14 46 41.92 -16 03 27.0  0.96118894524684  -0.1724045
 2012-Jan-17 12:49     14 46 48.85 -16 03 57.9  0.96118617943609  -0.1723948
 2012-Jan-17 13:29     14 46 55.79 -16 04 28.7  0.96118341378225  -0.1723850
 2012-Jan-17 14:09     14 47 02.72 -16 04 59.5  0.96118064828609  -0.1723751
 2012-Jan-17 14:49     14 47 09.66 -16 05 30.4  0.96117788294829  -0.1723652
 2012-Jan-17 15:29     14 47 16.60 -16 06 01.2  0.96117511776959  -0.1723553
 2012-Jan-17 16:09     14 47 23.54 -16 06 32.0  0.96117235275066  -0.1723453
 2012-Jan-17 16:49     14 47 30.48 -16 07 02.7  0.96116958789223  -0.1723353
 2012-Jan-17 17:29     14 47 37.41 -16 07 33.5  0.96116682319507  -0.1723252
 2012-Jan-17 18:09     14 47 44.35 -16 08 04.3  0.96116405865980  -0.1723151
 2012-Jan-17 18:49     14 47 51.30 -16 08 35.0  0.96116129428719  -0.1723049
 2012-Jan-17 19:29     14 47 58.24 -16 09 05.7  0.96115853007792  -0.1722947
 2012-Jan-17 20:09     14 48 05.18 -16 09 36.4  0.96115576603273  -0.1722845
 2012-Jan-17 20:49     14 48 12.12 -16 10 07.1  0.96115300215231  -0.1722742
 2012-Jan-17 21:29     14 48 19.07 -16 10 37.8  0.96115023843737  -0.1722638
 2012-Jan-17 22:09     14 48 26.01 -16 11 08.5  0.96114747488866  -0.1722535
 2012-Jan-17 22:49     14 48 32.95 -16 11 39.1  0.96114471150688  -0.1722430
 2012-Jan-17 23:29     14 48 39.90 -16 12 09.8  0.96114194829272  -0.1722326
 2012-Jan-18 00:09     14 48 46.85 -16 12 40.4  0.96113918524690  -0.1722220
 2012-Jan-18 00:49     14 48 53.79 -16 13 11.0  0.96113642237010  -0.1722115
 2012-Jan-18 01:29     14 49 00.74 -16 13 41.6  0.96113365966310  -0.1722009
 2012-Jan-18 02:09     14 49 07.69 -16 14 12.2  0.96113089712657  -0.1721902
 2012-Jan-18 02:49     14 49 14.64 -16 14 42.8  0.96112813476123  -0.1721795
 2012-Jan-18 03:29     14 49 21.59 -16 15 13.3  0.96112537256782  -0.1721688
 2012-Jan-18 04:09     14 49 28.54 -16 15 43.8  0.96112261054700  -0.1721580
 2012-Jan-18 04:49     14 49 35.49 -16 16 14.4  0.96111984869947  -0.1721472
 2012-Jan-18 05:29     14 49 42.44 -16 16 44.9  0.96111708702604  -0.1721363
 2012-Jan-18 06:09     14 49 49.39 -16 17 15.4  0.96111432552729  -0.1721254
 2012-Jan-18 06:49     14 49 56.34 -16 17 45.9  0.96111156420403  -0.1721144
 2012-Jan-18 07:29     14 50 03.29 -16 18 16.4  0.96110880305695  -0.1721034
 2012-Jan-18 08:09     14 50 10.25 -16 18 46.8  0.96110604208679  -0.1720924
 2012-Jan-18 08:49     14 50 17.20 -16 19 17.3  0.96110328129417  -0.1720813
 2012-Jan-18 09:29     14 50 24.16 -16 19 47.7  0.96110052067989  -0.1720702
 2012-Jan-18 10:09     14 50 31.11 -16 20 18.1  0.96109776024461  -0.1720590
 2012-Jan-18 10:49     14 50 38.07 -16 20 48.5  0.96109499998903  -0.1720478
 2012-Jan-18 11:29     14 50 45.03 -16 21 18.9  0.96109223991395  -0.1720365
 2012-Jan-18 12:09     14 50 51.98 -16 21 49.3  0.96108948001999  -0.1720252
 2012-Jan-18 12:49     14 50 58.94 -16 22 19.6  0.96108672030788  -0.1720138
 2012-Jan-18 13:29     14 51 05.90 -16 22 50.0  0.96108396077838  -0.1720024
 2012-Jan-18 14:09     14 51 12.86 -16 23 20.3  0.96108120143213  -0.1719910
 2012-Jan-18 14:49     14 51 19.82 -16 23 50.6  0.96107844226993  -0.1719795
 2012-Jan-18 15:29     14 51 26.78 -16 24 20.9  0.96107568329238  -0.1719679
 2012-Jan-18 16:09     14 51 33.74 -16 24 51.2  0.96107292450030  -0.1719564
 2012-Jan-18 16:49     14 51 40.71 -16 25 21.5  0.96107016589431  -0.1719447
 2012-Jan-18 17:29     14 51 47.67 -16 25 51.7  0.96106740747519  -0.1719331
 2012-Jan-18 18:09     14 51 54.63 -16 26 22.0  0.96106464924362  -0.1719214
